[{"OBJECT_NAME":"FLOCK 4BE-3","OBJECT_ID":"2024-149CX","EPOCH":"2026-04-05T04:44:17.927808","MEAN_MOTION":15.39311784,"ECCENTRICITY":0.00050356,"INCLINATION":97.3711,"RA_OF_ASC_NODE":178.535,"ARG_OF_PERICENTER":174.6761,"MEAN_ANOMALY":185.4539,"EPHEMERIS_TYPE":0,"CLASSIFICATION_TYPE":"U","NORAD_CAT_ID":60561,"ELEMENT_SET_NO":999,"REV_AT_EPOCH":9110,"BSTAR":0.00060137686,"MEAN_MOTION_DOT":0.00023427,"MEAN_MOTION_DDOT":0},{"OBJECT_NAME":"FLOCK 4BE-19","OBJECT_ID":"2024-149CZ","EPOCH":"2026-04-05T03:58:18.785280","MEAN_MOTION":15.41662958,"ECCENTRICITY":0.00046601,"INCLINATION":97.3748,"RA_OF_ASC_NODE":179.7129,"ARG_OF_PERICENTER":177.7673,"MEAN_ANOMALY":182.3595,"EPHEMERIS_TYPE":0,"CLASSIFICATION_TYPE":"U","NORAD_CAT_ID":60563,"ELEMENT_SET_NO":999,"REV_AT_EPOCH":9116,"BSTAR":0.00067003877,"MEAN_MOTION_DOT":0.00028232,"MEAN_MOTION_DDOT":0},{"OBJECT_NAME":"FLOCK 4G-8","OBJECT_ID":"2025-009E","EPOCH":"2026-04-05T04:21:01.087776","MEAN_MOTION":15.28344127,"ECCENTRICITY":0.00040822,"INCLINATION":97.4019,"RA_OF_ASC_NODE":177.5687,"ARG_OF_PERICENTER":194.5554,"MEAN_ANOMALY":165.5569,"EPHEMERIS_TYPE":0,"CLASSIFICATION_TYPE":"U","NORAD_CAT_ID":62613,"ELEMENT_SET_NO":999,"REV_AT_EPOCH":6776,"BSTAR":0.00054148921,"MEAN_MOTION_DOT":0.0001489,"MEAN_MOTION_DDOT":0},{"OBJECT_NAME":"FLOCK 4G-13","OBJECT_ID":"2025-009N","EPOCH":"2026-04-05T04:26:55.781376","MEAN_MOTION":15.36116986,"ECCENTRICITY":0.00054441,"INCLINATION":97.3988,"RA_OF_ASC_NODE":177.6423,"ARG_OF_PERICENTER":205.2207,"MEAN_ANOMALY":154.8772,"EPHEMERIS_TYPE":0,"CLASSIFICATION_TYPE":"U","NORAD_CAT_ID":62621,"ELEMENT_SET_NO":999,"REV_AT_EPOCH":6776,"BSTAR":0.0020894916,"MEAN_MOTION_DOT":0.00074089,"MEAN_MOTION_DDOT":0},{"OBJECT_NAME":"FLOCK 4G-9","OBJECT_ID":"2025-009P","EPOCH":"2026-04-05T05:26:36.149856","MEAN_MOTION":15.26820066,"ECCENTRICITY":0.00041544,"INCLINATION":97.3973,"RA_OF_ASC_NODE":176.7819,"ARG_OF_PERICENTER":204.3168,"MEAN_ANOMALY":155.7875,"EPHEMERIS_TYPE":0,"CLASSIFICATION_TYPE":"U","NORAD_CAT_ID":62622,"ELEMENT_SET_NO":999,"REV_AT_EPOCH":6772,"BSTAR":0.00052146521,"MEAN_MOTION_DOT":0.00013685,"MEAN_MOTION_DDOT":0},{"OBJECT_NAME":"FLOCK 4G-7","OBJECT_ID":"2025-009R","EPOCH":"2026-04-05T04:48:43.365024","MEAN_MOTION":15.27836265,"ECCENTRICITY":0.0002599,"INCLINATION":97.3952,"RA_OF_ASC_NODE":177.014,"ARG_OF_PERICENTER":184.5974,"MEAN_ANOMALY":175.5242,"EPHEMERIS_TYPE":0,"CLASSIFICATION_TYPE":"U","NORAD_CAT_ID":62624,"ELEMENT_SET_NO":999,"REV_AT_EPOCH":6775,"BSTAR":0.00052427734,"MEAN_MOTION_DOT":0.0001419,"MEAN_MOTION_DDOT":0},{"OBJECT_NAME":"FLOCK 4G-12","OBJECT_ID":"2025-009S","EPOCH":"2026-04-05T04:30:16.848000","MEAN_MOTION":15.27689645,"ECCENTRICITY":0.00041738,"INCLINATION":97.403,"RA_OF_ASC_NODE":177.4654,"ARG_OF_PERICENTER":189.5497,"MEAN_ANOMALY":170.5664,"EPHEMERIS_TYPE":0,"CLASSIFICATION_TYPE":"U","NORAD_CAT_ID":62625,"ELEMENT_SET_NO":999,"REV_AT_EPOCH":6775,"BSTAR":0.00049570175,"MEAN_MOTION_DOT":0.00013353,"MEAN_MOTION_DDOT":0},{"OBJECT_NAME":"FLOCK 4G-11","OBJECT_ID":"2025-009W","EPOCH":"2026-04-05T04:23:42.933120","MEAN_MOTION":15.27900223,"ECCENTRICITY":0.00026415,"INCLINATION":97.3937,"RA_OF_ASC_NODE":177.1254,"ARG_OF_PERICENTER":187.6039,"MEAN_ANOMALY":172.516,"EPHEMERIS_TYPE":0,"CLASSIFICATION_TYPE":"U","NORAD_CAT_ID":62629,"ELEMENT_SET_NO":999,"REV_AT_EPOCH":6776,"BSTAR":0.00051740883,"MEAN_MOTION_DOT":0.0001403,"MEAN_MOTION_DDOT":0},{"OBJECT_NAME":"PELICAN-2","OBJECT_ID":"2025-009Y","EPOCH":"2026-04-05T05:34:17.387616","MEAN_MOTION":15.40344575,"ECCENTRICITY":0.0002667,"INCLINATION":97.3954,"RA_OF_ASC_NODE":185.8484,"ARG_OF_PERICENTER":147.2679,"MEAN_ANOMALY":212.8732,"EPHEMERIS_TYPE":0,"CLASSIFICATION_TYPE":"U","NORAD_CAT_ID":62631,"ELEMENT_SET_NO":999,"REV_AT_EPOCH":6832,"BSTAR":0.0016399762,"MEAN_MOTION_DOT":0.00066587,"MEAN_MOTION_DDOT":0},{"OBJECT_NAME":"FLOCK 4G-26","OBJECT_ID":"2025-009AA","EPOCH":"2026-04-05T04:52:49.378656","MEAN_MOTION":15.27952894,"ECCENTRICITY":0.00036392,"INCLINATION":97.4028,"RA_OF_ASC_NODE":177.6069,"ARG_OF_PERICENTER":178.463,"MEAN_ANOMALY":181.6622,"EPHEMERIS_TYPE":0,"CLASSIFICATION_TYPE":"U","NORAD_CAT_ID":62633,"ELEMENT_SET_NO":999,"REV_AT_EPOCH":6776,"BSTAR":0.00051508761,"MEAN_MOTION_DOT":0.0001399,"MEAN_MOTION_DDOT":0},{"OBJECT_NAME":"FLOCK 4G-28","OBJECT_ID":"2025-009AB","EPOCH":"2026-04-05T04:53:19.800960","MEAN_MOTION":15.33673513,"ECCENTRICITY":0.00020375,"INCLINATION":97.4029,"RA_OF_ASC_NODE":179.5448,"ARG_OF_PERICENTER":164.8727,"MEAN_ANOMALY":195.2576,"EPHEMERIS_TYPE":0,"CLASSIFICATION_TYPE":"U","NORAD_CAT_ID":62634,"ELEMENT_SET_NO":999,"REV_AT_EPOCH":6789,"BSTAR":0.00036958033,"MEAN_MOTION_DOT":0.0001196,"MEAN_MOTION_DDOT":0},{"OBJECT_NAME":"FLOCK 4G-20","OBJECT_ID":"2025-009AD","EPOCH":"2026-04-05T04:24:30.816000","MEAN_MOTION":15.4134294,"ECCENTRICITY":0.00036157,"INCLINATION":97.3907,"RA_OF_ASC_NODE":178.1487,"ARG_OF_PERICENTER":214.9268,"MEAN_ANOMALY":145.1742,"EPHEMERIS_TYPE":0,"CLASSIFICATION_TYPE":"U","NORAD_CAT_ID":62636,"ELEMENT_SET_NO":999,"REV_AT_EPOCH":6783,"BSTAR":0.0022865456,"MEAN_MOTION_DOT":0.00096361,"MEAN_MOTION_DDOT":0},{"OBJECT_NAME":"FLOCK 4G-24","OBJECT_ID":"2025-009AE","EPOCH":"2026-04-05T04:19:04.424448","MEAN_MOTION":15.28502882,"ECCENTRICITY":0.00034632,"INCLINATION":97.4034,"RA_OF_ASC_NODE":177.8083,"ARG_OF_PERICENTER":165.6833,"MEAN_ANOMALY":194.4505,"EPHEMERIS_TYPE":0,"CLASSIFICATION_TYPE":"U","NORAD_CAT_ID":62637,"ELEMENT_SET_NO":999,"REV_AT_EPOCH":6777,"BSTAR":0.00052576873,"MEAN_MOTION_DOT":0.00014524,"MEAN_MOTION_DDOT":0},{"OBJECT_NAME":"FLOCK 4G-3","OBJECT_ID":"2025-009AG","EPOCH":"2026-04-05T04:50:23.591616","MEAN_MOTION":15.27872975,"ECCENTRICITY":0.00031987,"INCLINATION":97.4035,"RA_OF_ASC_NODE":177.6225,"ARG_OF_PERICENTER":169.6302,"MEAN_ANOMALY":190.5004,"EPHEMERIS_TYPE":0,"CLASSIFICATION_TYPE":"U","NORAD_CAT_ID":62639,"ELEMENT_SET_NO":999,"REV_AT_EPOCH":6775,"BSTAR":0.00055020223,"MEAN_MOTION_DOT":0.00014914,"MEAN_MOTION_DDOT":0},{"OBJECT_NAME":"FLOCK 4G-27","OBJECT_ID":"2025-009AJ","EPOCH":"2026-04-05T05:15:20.751552","MEAN_MOTION":15.27907474,"ECCENTRICITY":0.00024461,"INCLINATION":97.3949,"RA_OF_ASC_NODE":177.1139,"ARG_OF_PERICENTER":168.7397,"MEAN_ANOMALY":191.3897,"EPHEMERIS_TYPE":0,"CLASSIFICATION_TYPE":"U","NORAD_CAT_ID":62641,"ELEMENT_SET_NO":999,"REV_AT_EPOCH":6775,"BSTAR":0.00051115283,"MEAN_MOTION_DOT":0.00013862,"MEAN_MOTION_DDOT":0},{"OBJECT_NAME":"FLOCK 4G-29","OBJECT_ID":"2025-009AK","EPOCH":"2026-04-05T03:30:03.292416","MEAN_MOTION":15.28030271,"ECCENTRICITY":0.00033282,"INCLINATION":97.4033,"RA_OF_ASC_NODE":177.5216,"ARG_OF_PERICENTER":166.6144,"MEAN_ANOMALY":193.5185,"EPHEMERIS_TYPE":0,"CLASSIFICATION_TYPE":"U","NORAD_CAT_ID":62642,"ELEMENT_SET_NO":999,"REV_AT_EPOCH":6774,"BSTAR":0.00046686626,"MEAN_MOTION_DOT":0.00012701,"MEAN_MOTION_DDOT":0}]
