FLOCK 4BE-3             
1 60561U 24149CX  26095.19742972  .00023427  00000+0  60138-3 0  9999
2 60561  97.3711 178.5350 0005035 174.6761 185.4539 15.39311784 91100
FLOCK 4BE-19            
1 60563U 24149CZ  26095.16549520  .00028232  00000+0  67004-3 0  9990
2 60563  97.3748 179.7129 0004660 177.7673 182.3595 15.41662958 91167
FLOCK 4G-8              
1 62613U 25009E   26095.18126259  .00014890  00000+0  54149-3 0  9997
2 62613  97.4019 177.5687 0004082 194.5554 165.5569 15.28344127 67768
FLOCK 4G-13             
1 62621U 25009N   26095.18536784  .00074089  00000+0  20895-2 0  9990
2 62621  97.3988 177.6423 0005444 205.2207 154.8772 15.36116986 67764
FLOCK 4G-9              
1 62622U 25009P   26095.22680729  .00013685  00000+0  52147-3 0  9996
2 62622  97.3973 176.7819 0004154 204.3168 155.7875 15.26820066 67721
FLOCK 4G-7              
1 62624U 25009R   26095.20050191  .00014190  00000+0  52428-3 0  9994
2 62624  97.3952 177.0140 0002599 184.5974 175.5242 15.27836265 67756
FLOCK 4G-12             
1 62625U 25009S   26095.18769500  .00013353  00000+0  49570-3 0  9997
2 62625  97.4030 177.4654 0004173 189.5497 170.5664 15.27689645 67755
FLOCK 4G-11             
1 62629U 25009W   26095.18313580  .00014030  00000+0  51741-3 0  9990
2 62629  97.3937 177.1254 0002641 187.6039 172.5160 15.27900223 67768
PELICAN-2               
1 62631U 25009Y   26095.23214569  .00066587  00000+0  16400-2 0  9992
2 62631  97.3954 185.8484 0002667 147.2679 212.8732 15.40344575 68324
FLOCK 4G-26             
1 62633U 25009AA  26095.20334929  .00013990  00000+0  51509-3 0  9994
2 62633  97.4028 177.6069 0003639 178.4630 181.6622 15.27952894 67762
FLOCK 4G-28             
1 62634U 25009AB  26095.20370140  .00011960  00000+0  36958-3 0  9996
2 62634  97.4029 179.5448 0002037 164.8727 195.2576 15.33673513 67891
FLOCK 4G-20             
1 62636U 25009AD  26095.18369000  .00096361  00000+0  22865-2 0  9997
2 62636  97.3907 178.1487 0003615 214.9268 145.1742 15.41342940 67834
FLOCK 4G-24             
1 62637U 25009AE  26095.17991232  .00014524  00000+0  52577-3 0  9990
2 62637  97.4034 177.8083 0003463 165.6833 194.4505 15.28502882 67771
FLOCK 4G-3              
1 62639U 25009AG  26095.20166194  .00014914  00000+0  55020-3 0  9996
2 62639  97.4035 177.6225 0003198 169.6302 190.5004 15.27872975 67751
FLOCK 4G-27             
1 62641U 25009AJ  26095.21899018  .00013862  00000+0  51115-3 0  9990
2 62641  97.3949 177.1139 0002446 168.7397 191.3897 15.27907474 67757
FLOCK 4G-29             
1 62642U 25009AK  26095.14587144  .00012701  00000+0  46687-3 0  9996
2 62642  97.4033 177.5216 0003328 166.6144 193.5185 15.28030271 67746
